GLOBALSTAR M035 [-]     
1 25851U 99037A   24100.02591375 -.00000039  00000+0  91801-3 0  9992
2 25851  51.9954 303.1786 0013455   2.2626 169.2729 11.04529190 48280
GLOBALSTAR M032 [-]     
1 25852U 99037B   24099.95037309 -.00000022  00000+0  14381-2 0  9993
2 25852  51.9925 158.5055 0010099 155.5403 204.5878 11.19050953 86176
GLOBALSTAR M051 [-]     
1 25853U 99037C   24099.99038569 -.00000057  00000+0  36667-3 0  9997
2 25853  51.9835   8.3281 0001574 137.1196 222.9737 11.42195041 82777
GLOBALSTAR M030 [-]     
1 25854U 99037D   24099.59142359 -.00000002  00000+0  15392-2 0  9998
2 25854  51.9864 203.0324 0003290 355.5844   4.4943 11.55090177 99829
GLOBALSTAR M048 [-]     
1 25872U 99041A   24099.96636000 -.00000064  00000+0  15676-3 0  9999
2 25872  51.9364 286.6323 0013942 150.3459  18.9425 11.33844916 75720
GLOBALSTAR M026 [-]     
1 25873U 99041B   24099.92105490 -.00000105  00000+0 -14999-2 0  9993
2 25873  52.0018  65.9370 0001052 249.1552 121.7259 11.06836468100404
GLOBALSTAR M043 [-]     
1 25874U 99041C   24100.03560583 -.00000036  00000+0  94255-3 0  9993
2 25874  51.9443  16.8052 0012579 294.4663  77.1959 11.25677477 73986
GLOBALSTAR M028 [-]     
1 25875U 99041D   24099.99997375 -.00000110  00000+0 -67090-4 0  9991
2 25875  51.9644  47.6985 0063062 208.3176 151.4250 12.50552710135859
